STARLINK-30505          
1 57972U 23151J   25041.10467107  .00004989  00000+0  38394-3 0  9999
2 57972  43.0034 312.4014 0001311 278.8893  81.1801 15.02551415 76676
STARLINK-30502          
1 57973U 23151K   25041.15894597  .00001349  00000+0  11492-3 0  9999
2 57973  43.0008 311.9577 0001021 280.7895  79.2832 15.02538775 76685
STARLINK-30489          
1 57974U 23151L   25041.45025213  .00002060  00000+0  16742-3 0  9998
2 57974  43.0052 309.8467 0000765 281.5017  78.5739 15.02550345 76739
STARLINK-30503          
1 57975U 23151M   25041.16670788  .00001814  00000+0  14932-3 0  9995
2 57975  43.0032 311.9877 0001205 272.2123  87.8582 15.02541465 76677
STARLINK-30512          
1 57976U 23151N   25041.46801093  .00000922  00000+0  83313-4 0  9993
2 57976  43.0037 309.9177 0001110 271.4532  88.6183 15.02540232 76737
STARLINK-30509          
1 57977U 23151P   25041.18972501 -.00000499  00000+0 -21829-4 0  9991
2 57977  43.0072 324.9099 0001196 260.7488  99.3219 15.02535945 76534
STARLINK-30511          
1 57978U 23151Q   25041.18306772  .00000510  00000+0  52836-4 0  9997
2 57978  43.0069 324.8617 0001120 268.2554  91.8160 15.02534465 76516
STARLINK-30508          
1 57979U 23151R   25041.17973220  .00000658  00000+0  63753-4 0  9998
2 57979  43.0032 324.8354 0001077 270.7188  89.3531 15.02539184 76536
STARLINK-30504          
1 57980U 23151S   25041.02012151  .00002827  00000+0  11783-3 0  9996
2 57980  43.0010 288.0065 0001545 277.7219  82.3456 15.25927538 76950
STARLINK-30510          
1 57981U 23151T   25041.84118635 -.00000895  00000+0 -51168-4 0  9998
2 57981  43.0033 321.2004 0001163 266.9979  93.0730 15.02534019 76630
STARLINK-30507          
1 57982U 23151U   25041.50546881  .00001190  00000+0  10318-3 0  9998
2 57982  43.0054 322.9795 0000948 267.4528  92.6205 15.02530413 76585
STARLINK-30515          
1 57983U 23151V   25041.50213537  .00000755  00000+0  70935-4 0  9996
2 57983  43.0060 322.9552 0000809 267.0450  93.0300 15.02537788 76583
STARLINK-30516          
1 57984U 23151W   25041.49880295  .00002698  00000+0  21468-3 0  9990
2 57984  43.0024 322.9321 0001078 267.7243  92.3476 15.02542080 76570
STARLINK-30519          
1 57985U 23151X   25041.49547331  .00000762  00000+0  71474-4 0  9995
2 57985  43.0080 322.9063 0001244 269.5013  90.5687 15.02540001 76526
STARLINK-30537          
1 57991U 23153A   25041.67996936  .00000065  00000+0  19882-4 0  9994
2 57991  43.0049  39.1921 0001182 266.6025  93.4682 15.02542194 75802
STARLINK-30534          
1 57992U 23153B   25041.29109122  .00000568  00000+0  57136-4 0  9998
2 57992  43.0061  41.4294 0000996 264.2020  95.8709 15.02538503 75745
STARLINK-30536          
1 57993U 23153C   25041.67330734  .00001148  00000+0  10003-3 0  9992
2 57993  43.0042  39.1445 0001111 278.4265  81.6451 15.02541245 75907
STARLINK-30538          
1 57994U 23153D   25041.06835551  .00002012  00000+0  16398-3 0  9997
2 57994  43.0025  42.3387 0000916 276.1444  83.9294 15.02536549 75716
STARLINK-30517          
1 57995U 23153E   25041.33093174  .00000719  00000+0  68337-4 0  9998
2 57995  43.0042  40.8696 0001270 265.1862  94.8835 15.02531821 75853
STARLINK-30543          
1 57996U 23153F   25041.40049168  .00000228  00000+0  12732-4 0  9994
2 57996  43.0043 189.4908 0001934 276.0460  84.0176 15.40701760 78296
STARLINK-30523          
1 57997U 23153G   25041.66997956  .00001181  00000+0  10247-3 0  9997
2 57997  43.0032  39.1178 0001046 278.5830  81.4894 15.02540535 75909
STARLINK-30531          
1 57998U 23153H   25041.69982430 -.00000740  00000+0 -39691-4 0  9999
2 57998  43.0077  38.4852 0001048 253.6961 106.3766 15.02542484 75912
STARLINK-30552          
1 57999U 23153J   25041.39075251  .00000610  00000+0  60232-4 0  9990
2 57999  43.0030  40.4600 0001097 274.1702  85.9015 15.02538858 75864
STARLINK-30545          
1 58000U 23153K   25041.38742553  .00003404  00000+0  26695-3 0  9997
2 58000  43.0035  40.4318 0001070 269.8983  90.1736 15.02537703 75868
STARLINK-30535          
1 58001U 23153L   25041.71647975  .00000877  00000+0  79984-4 0  9998
2 58001  43.0041  38.6010 0001294 267.9954  92.0740 15.02535815 75913
STARLINK-30540          
1 58002U 23153M   25041.68662222 -.00000227  00000+0 -17003-5 0  9993
2 58002  43.0039  39.2193 0001565 264.7900  95.2764 15.02542413 75808
STARLINK-30546          
1 58003U 23153N   25041.71314189  .00007011  00000+0  53320-3 0  9990
2 58003  43.0039  38.5741 0001188 294.0745  65.9973 15.02560523 75914
STARLINK-30539          
1 58004U 23153P   25041.70982466  .00008555  00000+0  64728-3 0  9997
2 58004  43.0016  38.5540 0000985 276.0082  84.0648 15.02554765 75917
STARLINK-30530          
1 58005U 23153Q   25041.70315173  .00002173  00000+0  17582-3 0  9999
2 58005  43.0058  38.4997 0001352 267.0380  93.0308 15.02546587 75915
STARLINK-30526          
1 58006U 23153R   25041.65064880  .00002856  00000+0  22641-3 0  9990
2 58006  43.0061  13.7773 0001657 258.5372 101.5284 15.02536067 76193
STARLINK-30527          
1 58007U 23153S   25041.91668981  .00009604  00000+0  31188-3 0  9996
2 58007  42.9988 252.8579 0001679 268.7190 338.4504 15.32086095  5872
STARLINK-30522          
1 58008U 23153T   25041.06165549  .00000085  00000+0  21371-4 0  9993
2 58008  43.0030  42.2804 0001556 203.6672 156.4099 15.02611938 75817
STARLINK-30486          
1 58009U 23153U   25041.70650513  .00013067  00000+0  98036-3 0  9990
2 58009  42.9953  38.5156 0000577 269.6449  90.4327 15.02544851 75814
STARLINK-30520          
1 58010U 23153V   25041.69661683  .00002239  00000+0  18075-3 0  9994
2 58010  43.0044  39.2952 0001157 266.1224  93.9486 15.02533449 75803
STARLINK-30497          
1 58011U 23153W   25041.69328564  .00000835  00000+0  76875-4 0  9996
2 58011  43.0063  39.2708 0001102 265.0065  95.0652 15.02536627 75905
STARLINK-30525          
1 58012U 23153X   25041.68330144  .00000574  00000+0  57552-4 0  9994
2 58012  43.0046  39.1944 0000962 280.1293  79.9441 15.02536712 75904
STARLINK-30514          
1 58028U 23156A   25041.39593860  .00001457  00000+0  54508-4 0  9997
2 58028  53.1587 103.4050 0000951  63.9147 296.1954 15.34226930 76219
STARLINK-30518          
1 58029U 23156B   25041.38661533 -.00000754  00000+0 -11276-4 0  9996
2 58029  53.1604 103.3561 0001319  80.5162 279.5990 15.34229702 76212
STARLINK-30549          
1 58030U 23156C   25041.37198922  .00001029  00000+0  41776-4 0  9996
2 58030  53.1603 100.9495 0001268  97.7209 262.3938 15.34230243 76198
STARLINK-30556          
1 58031U 23156D   25041.49394259  .00007241  00000+0  25639-3 0  9992
2 58031  53.1582 110.1111 0001316 107.1204 252.9941 15.30196238 76110
STARLINK-30561          
1 58032U 23156E   25041.48372864  .00002170  00000+0  75736-4 0  9990
2 58032  53.1593 100.9356 0001417  96.0219 264.0945 15.34227675 76252
STARLINK-30562          
1 58033U 23156F   25041.57837562  .00000777  00000+0  73669-4 0  9996
2 58033  53.1597 162.5671 0001351  94.6003 265.5141 15.04926097 75381
STARLINK-30565          
1 58034U 23156G   25041.39538675  .00001397  00000+0  52726-4 0  9990
2 58034  53.1594 101.8060 0001148  75.1490 284.9639 15.34226263 76238
STARLINK-30438          
1 58035U 23156H   25041.91668981  .00046569  00000+0  13908-2 0  9990
2 58035  53.1590 100.5642 0001400  99.3798 104.5713 15.34174073  5881
STARLINK-30437          
1 58036U 23156J   25041.48860126  .00002236  00000+0  77711-4 0  9995
2 58036  53.1601 102.5539 0001344  93.3751 266.7406 15.34227958 76184
STARLINK-30533          
1 58037U 23156K   25041.63726802  .00007335  00000+0  53109-3 0  9994
2 58037  53.1591 162.2148 0001411  76.9601 283.1546 15.04936178 75396
STARLINK-30560          
1 58038U 23156L   25041.53520126  .00005732  00000+0  18155-3 0  9996
2 58038  53.1578 102.8460 0001128  85.7634 274.3497 15.34240338 76182
STARLINK-30559          
1 58039U 23156M   25041.65122814 -.00001056  00000+0 -54364-4 0  9992
2 58039  53.1606 162.3115 0001492  80.5943 279.5216 15.04932293 75396
STARLINK-30555          
1 58040U 23156N   25041.64800234  .00002145  00000+0  16915-3 0  9999
2 58040  53.1598 162.2978 0001163  90.9391 269.1732 15.04932241 75392
STARLINK-30542          
1 58041U 23156P   25041.39387650  .00001483  00000+0  52345-4 0  9996
2 58041  53.1596 100.7210 0001096  93.7296 266.3832 15.36076876 76240
STARLINK-30563          
1 58042U 23156Q   25041.39082083  .00001363  00000+0  51716-4 0  9997
2 58042  53.1587 102.5024 0000773  73.3670 286.7417 15.34228957 76225
STARLINK-30564          
1 58043U 23156R   25041.36276848  .00186157  00000+0  54012-2 0  9994
2 58043  53.1587 101.6070 0000947  86.2181 273.8930 15.34308077 76230
STARLINK-30547          
1 58044U 23156S   25041.60722352  .00000439  00000+0  50031-4 0  9995
2 58044  53.1605 162.0025 0001269  96.1699 263.9436 15.04927058 75395
STARLINK-30550          
1 58045U 23156T   25041.65709751  .00001009  00000+0  46202-4 0  9998
2 58045  53.1630  22.3090 0001650  86.5954 273.5236 15.30198836 77351
STARLINK-30548          
1 58046U 23156U   25041.64049546  .00000902  00000+0  82400-4 0  9998
2 58046  53.1612 162.2499 0001541 101.6728 258.4435 15.04924915 75342
STARLINK-30529          
1 58047U 23156V   25041.63083442  .00000887  00000+0  81311-4 0  9993
2 58047  53.1601 162.1815 0001375  88.7291 271.3857 15.04928140 75343
STARLINK-30554          
1 58048U 23156W   25041.62763920 -.00005533  00000+0 -36776-3 0  9998
2 58048  53.1591 162.1726 0001101 100.0736 260.0378 15.04896970 75340
STARLINK-30568          
1 58051U 23158A   25041.57444355  .00000934  00000+0  84192-4 0  9990
2 58051  43.0049   1.2681 0001324 274.1808  85.8883 15.02541060 74543
STARLINK-30575          
1 58052U 23158B   25041.31516845  .00002847  00000+0  22560-3 0  9992
2 58052  43.0041   2.7639 0001349 282.2451  77.8240 15.02560267 74500
